     0.02500000      -1692.000       847.0000   6.274340e+08      -12345.00
       0.000000       729.9750      -544.5000      -12345.00       2.000000
      -12345.00      -12345.00      -12345.00      -12345.00      -12345.00
      -12345.00      -12345.00      -12345.00      -12345.00      -12345.00
      -12345.00      -12345.00      -12345.00      -12345.00      -12345.00
      -12345.00      -12345.00      -12345.00      -12345.00      -12345.00
      -12345.00       36.02140      -121.2356       336.0000       0.000000
      -15.98380      -173.0871      -12345.00       16700.00      -12345.00
      -12345.00      -12345.00      -12345.00      -12345.00      -12345.00
      -12345.00      -12345.00      -12345.00      -12345.00      -12345.00
       7929.167       42.31784       233.0132       71.25191      -12345.00
      -12345.00      -376.5752       0.000000       0.000000      -12345.00
      -12345.00      -12345.00      -12345.00      -12345.00      -12345.00
      -12345.00      -12345.00      -12345.00      -12345.00      -12345.00
      2006        47        15         3        44
       700         6         0         0     29200
    -12345    -12345    -12345    -12345    -12345
         1         7    -12345    -12345    -12345
    -12345    -12345    -12345    -12345    -12345
    -12345    -12345    -12345    -12345    -12345
    -12345    -12345    -12345    -12345    -12345
         1         0         1         1         0
V03C     -12345          
        -12345  -12345  
-12345  -12345  -12345  
-12345  -12345  -12345  
-12345  -12345  -12345  
-12345  -12345  -12345  
-12345  -12345  BHZ     
TA      -12345  -12345  
[...]
      -267.0000      -271.0000      -284.0000      -312.0000      -322.0000
      -317.0000      -330.0000      -347.0000      -351.0000      -335.0000
      -336.0000      -349.0000      -324.0000      -301.0000      -295.0000
      -287.0000      -266.0000      -229.0000      -213.0000      -204.0000
      -175.0000      -143.0000      -129.0000      -113.0000      -75.00000
      -45.00000      -37.00000      -24.00000       13.00000       42.00000
       48.00000       63.00000       100.0000       134.0000       140.0000
       161.0000       204.0000       216.0000       217.0000       238.0000
       262.0000       270.0000       262.0000       272.0000       291.0000
       282.0000       261.0000       263.0000       273.0000       253.0000
       229.0000       230.0000       219.0000       190.0000       168.0000
       148.0000       129.0000       95.00000       61.00000       50.00000
       23.00000      -24.00000      -48.00000      -58.00000      -84.00000
      -124.0000      -163.0000      -186.0000      -212.0000      -258.0000
      -298.0000      -324.0000      -357.0000      -403.0000      -440.0000
      -462.0000      -497.0000      -539.0000      -563.0000      -580.0000
      -617.0000      -669.0000      -706.0000      -728.0000      -770.0000
      -815.0000      -841.0000      -868.0000      -899.0000      -936.0000
      -960.0000      -971.0000      -1004.000      -1041.000      -1050.000
      -1059.000      -1089.000      -1121.000      -1125.000      -1123.000
      -1148.000      -1170.000      -1170.000      -1168.000      -1177.000
      -1199.000      -1198.000      -1191.000      -1214.000      -1228.000
      -1224.000      -1224.000      -1227.000      -1230.000      -1219.000
      -1206.000      -1217.000      -1217.000      -1189.000      -1179.000
      -1185.000      -1170.000      -1140.000      -1126.000      -1116.000
      -1094.000      -1063.000      -1041.000      -1028.000      -1002.000
      -960.0000      -931.0000      -913.0000      -879.0000      -840.0000
      -811.0000      -786.0000      -748.0000      -703.0000      -668.0000
      -636.0000      -592.0000      -545.0000      -519.0000      -489.0000
      -442.0000      -401.0000      -379.0000      -358.0000      -323.0000
      -291.0000      -277.0000      -271.0000      -241.0000      -215.0000
      -218.0000      -219.0000      -200.0000      -188.0000      -198.0000
      -199.0000      -189.0000      -198.0000      -215.0000      -214.0000
      -205.0000      -215.0000      -234.0000      -241.0000      -237.0000
      -247.0000      -268.0000      -270.0000      -264.0000      -272.0000
      -288.0000      -296.0000      -288.0000      -293.0000      -312.0000
      -307.0000      -298.0000      -310.0000      -320.0000      -314.0000
      -298.0000      -305.0000      -313.0000      -294.0000      -279.0000
      -274.0000      -281.0000      -261.0000      -228.0000      -223.0000
      -217.0000      -199.0000      -183.0000      -174.0000      -169.0000
      -157.0000      -142.0000      -147.0000      -149.0000      -118.0000
      -98.00000      -104.0000      -97.00000      -73.00000      -60.00000
      -66.00000      -75.00000      -61.00000      -54.00000      -66.00000
      -71.00000      -66.00000      -68.00000      -88.00000      -95.00000
      -93.00000      -90.00000      -100.0000      -115.0000      -103.0000
      -100.0000      -117.0000      -120.0000      -115.0000      -115.0000
      -133.0000      -144.0000      -137.0000      -144.0000      -159.0000
      -159.0000      -159.0000      -177.0000      -200.0000      -206.0000
      -206.0000      -234.0000      -270.0000      -281.0000      -292.0000
      -319.0000      -342.0000      -348.0000      -347.0000      -366.0000
      -387.0000      -386.0000      -393.0000      -408.0000      -418.0000
      -419.0000      -418.0000      -432.0000      -431.0000      -415.0000
      -415.0000      -419.0000      -410.0000      -393.0000      -384.0000
      -393.0000      -381.0000      -359.0000      -366.0000      -375.0000
      -374.0000      -372.0000      -382.0000      -411.0000      -425.0000
      -433.0000      -462.0000      -492.0000      -515.0000      -532.0000
      -559.0000      -598.0000      -620.0000      -639.0000      -667.0000
      -700.0000      -724.0000      -736.0000      -765.0000      -796.0000
      -806.0000      -818.0000      -835.0000      -848.0000      -849.0000
      -845.0000      -849.0000      -854.0000      -847.0000      -837.0000
      -834.0000      -827.0000      -812.0000      -793.0000      -792.0000
      -786.0000      -757.0000      -735.0000      -726.0000      -713.0000
      -683.0000      -656.0000      -652.0000      -639.0000      -607.0000
      -592.0000      -588.0000      -575.0000      -558.0000      -548.0000
      -544.0000      -527.0000      -499.0000      -484.0000      -476.0000
      -453.0000      -421.0000      -401.0000      -394.0000      -365.0000
      -317.0000      -300.0000      -291.0000      -263.0000      -230.0000
      -197.0000      -183.0000      -160.0000      -125.0000      -104.0000
      -87.00000      -73.00000      -47.00000      -30.00000      -25.00000
      -14.00000      -1.000000       5.000000      -2.000000       3.000000
       12.00000      -1.000000      -19.00000      -21.00000      -28.00000
      -45.00000      -57.00000      -65.00000      -67.00000      -89.00000
      -106.0000      -100.0000      -110.0000      -128.0000      -136.0000
      -135.0000      -137.0000      -157.0000      -166.0000      -157.0000
      -160.0000      -170.0000      -179.0000      -178.0000      -169.0000
      -182.0000      -186.0000      -180.0000      -197.0000      -213.0000
      -221.0000      -225.0000      -245.0000      -271.0000      -278.0000
      -285.0000      -311.0000      -338.0000      -342.0000      -348.0000
      -369.0000      -392.0000      -400.0000      -407.0000      -434.0000
      -449.0000      -458.0000      -471.0000      -493.0000      -508.0000
      -508.0000      -519.0000      -534.0000      -538.0000      -526.0000
      -517.0000      -520.0000      -511.0000      -488.0000      -468.0000
      -458.0000      -445.0000      -421.0000      -406.0000      -408.0000
      -392.0000      -357.0000      -341.0000      -340.0000      -327.0000
      -298.0000      -276.0000      -275.0000      -267.0000      -238.0000
      -219.0000      -221.0000      -215.0000      -196.0000      -185.0000
      -185.0000      -182.0000      -168.0000      -166.0000      -178.0000
      -171.0000      -155.0000      -155.0000      -166.0000      -166.0000
      -158.0000      -166.0000      -178.0000      -173.0000      -159.0000
      -156.0000      -164.0000      -164.0000      -153.0000      -150.0000
      -155.0000      -143.0000      -127.0000      -133.0000      -138.0000
      -129.0000      -115.0000      -113.0000      -118.0000      -108.0000
      -88.00000      -89.00000      -102.0000      -89.00000      -81.00000
      -90.00000      -94.00000      -94.00000      -91.00000      -104.0000
      -122.0000      -118.0000      -114.0000      -138.0000      -157.0000
      -159.0000      -162.0000      -183.0000      -205.0000      -208.0000
      -219.0000      -243.0000      -270.0000      -280.0000      -281.0000
      -309.0000      -335.0000      -339.0000      -348.0000      -369.0000
      -385.0000      -391.0000      -397.0000      -409.0000      -426.0000
      -426.0000      -425.0000      -441.0000      -443.0000      -435.0000
      -439.0000      -447.0000      -444.0000      -435.0000      -436.0000
      -436.0000      -430.0000      -413.0000      -406.0000      -416.0000
      -402.0000      -385.0000      -389.0000      -391.0000      -386.0000
      -373.0000      -372.0000      -382.0000      -380.0000      -378.0000
      -388.0000      -404.0000      -402.0000      -402.0000      -423.0000
      -432.0000      -431.0000      -442.0000      -459.0000      -484.0000
      -501.0000      -507.0000      -541.0000      -575.0000      -575.0000
      -597.0000      -633.0000      -653.0000      -666.0000      -680.0000
      -716.0000      -743.0000      -740.0000      -756.0000      -792.0000
      -806.0000      -808.0000      -821.0000      -847.0000      -858.0000
      -851.0000      -863.0000      -883.0000      -887.0000      -886.0000
      -899.0000      -913.0000      -898.0000      -880.0000      -891.0000
      -899.0000      -875.0000      -860.0000      -868.0000      -868.0000
      -845.0000      -819.0000      -815.0000      -812.0000      -790.0000
      -763.0000      -761.0000      -750.0000      -721.0000      -712.0000
      -700.0000      -689.0000      -669.0000      -641.0000      -643.0000
      -636.0000      -602.0000      -584.0000      -584.0000      -572.0000
      -542.0000      -524.0000      -524.0000      -505.0000      -480.0000
      -464.0000      -458.0000      -448.0000      -418.0000      -415.0000
      -423.0000      -395.0000      -373.0000      -374.0000      -371.0000
      -355.0000      -338.0000      -344.0000      -349.0000      -333.0000
      -325.0000      -330.0000      -328.0000      -307.0000      -298.0000
      -307.0000      -302.0000      -280.0000      -269.0000      -282.0000
      -278.0000      -248.0000      -242.0000      -252.0000      -250.0000
      -229.0000      -222.0000      -239.0000      -237.0000      -227.0000
      -234.0000      -247.0000      -254.0000      -252.0000      -262.0000
      -283.0000      -277.0000      -265.0000      -276.0000      -282.0000
      -266.0000      -252.0000      -250.0000      -255.0000      -245.0000
      -220.0000      -214.0000      -213.0000      -194.0000      -179.0000
      -182.0000      -181.0000      -157.0000      -142.0000      -145.0000
      -140.0000      -123.0000      -106.0000      -113.0000      -122.0000
      -104.0000      -99.00000      -117.0000      -124.0000      -122.0000
      -136.0000      -167.0000      -190.0000      -198.0000      -219.0000
      -257.0000      -288.0000      -301.0000      -332.0000      -383.0000
      -406.0000      -419.0000      -460.0000      -503.0000      -527.0000
      -545.0000      -578.0000      -629.0000      -647.0000      -654.0000
      -686.0000      -707.0000      -719.0000      -729.0000      -744.0000
      -765.0000      -761.0000      -756.0000      -774.0000      -780.0000
      -773.0000      -772.0000      -785.0000      -792.0000      -776.0000
      -770.0000      -778.0000      -766.0000      -749.0000      -734.0000
      -734.0000      -738.0000      -703.0000      -676.0000      -682.0000
      -673.0000      -645.0000      -618.0000      -614.0000      -601.0000
      -558.0000      -528.0000      -509.0000      -484.0000      -450.0000
      -412.0000      -394.0000      -364.0000      -318.0000      -293.0000
      -279.0000      -259.0000      -229.0000      -206.0000      -197.0000
      -172.0000      -135.0000      -115.0000      -101.0000      -77.00000
      -46.00000      -28.00000      -19.00000       8.000000       45.00000
       66.00000       83.00000       115.0000       150.0000       166.0000
       169.0000       200.0000       249.0000       260.0000       260.0000
       287.0000       316.0000       324.0000       323.0000       343.0000
       364.0000       364.0000       364.0000       381.0000       390.0000
       374.0000       377.0000       397.0000       399.0000       381.0000
       369.0000       379.0000       384.0000       361.0000       348.0000
       363.0000       355.0000       332.0000       332.0000       337.0000
       332.0000       318.0000       320.0000       336.0000       327.0000
       312.0000       318.0000       326.0000       319.0000       306.0000
       309.0000       316.0000       298.0000       286.0000       290.0000
       290.0000       276.0000       255.0000       257.0000       254.0000
       217.0000       200.0000       198.0000       175.0000       142.0000
       108.0000       94.00000       74.00000       27.00000      -10.00000
      -42.00000      -82.00000      -139.0000      -191.0000      -220.0000
      -268.0000      -323.0000      -369.0000      -406.0000      -442.0000
      -498.0000      -545.0000      -566.0000      -611.0000      -669.0000
      -702.0000      -736.0000      -783.0000      -832.0000      -874.0000
      -910.0000      -961.0000      -1016.000      -1057.000      -1098.000
      -1150.000      -1209.000      -1250.000      -1281.000      -1338.000
      -1394.000      -1430.000      -1459.000      -1500.000      -1555.000
      -1582.000      -1596.000      -1627.000      -1650.000      -1657.000
      -1663.000      -1679.000      -1692.000      -1685.000      -1674.000
      -1684.000      -1686.000      -1665.000      -1646.000      -1642.000
      -1635.000      -1598.000      -1569.000      -1565.000      -1539.000
      -1500.000      -1468.000      -1448.000      -1427.000      -1385.000
      -1349.000      -1328.000      -1299.000      -1260.000      -1224.000
      -1196.000      -1160.000      -1119.000      -1095.000      -1079.000
      -1047.000      -1002.000      -971.0000      -951.0000      -915.0000
      -872.0000      -840.0000      -812.0000      -768.0000      -719.0000
      -687.0000      -656.0000      -605.0000      -546.0000      -503.0000
      -468.0000      -417.0000      -355.0000      -315.0000      -284.0000
      -235.0000      -184.0000      -155.0000      -127.0000      -83.00000
      -45.00000      -24.00000      -8.000000       26.00000       59.00000
       63.00000       66.00000       86.00000       104.0000       99.00000
       93.00000       108.0000       115.0000       103.0000       100.0000
       115.0000       123.0000       109.0000       103.0000       122.0000
       131.0000       118.0000       119.0000       143.0000       150.0000
       139.0000       143.0000       165.0000       180.0000       177.0000
       188.0000       217.0000       227.0000       219.0000       232.0000
       259.0000       262.0000       256.0000       265.0000       283.0000
       288.0000       279.0000       290.0000       309.0000       305.0000
       292.0000       292.0000       299.0000       288.0000       263.0000
       257.0000       248.0000       216.0000       186.0000       166.0000
       143.0000       102.0000       56.00000       38.00000       10.00000
      -48.00000      -98.00000      -136.0000      -170.0000      -220.0000
      -281.0000      -325.0000      -366.0000      -426.0000      -492.0000
      -537.0000      -587.0000      -658.0000      -718.0000      -754.0000
      -803.0000      -878.0000      -928.0000      -952.0000      -988.0000
      -1040.000      -1082.000      -1107.000      -1143.000      -1180.000
      -1194.000      -1198.000      -1223.000      -1262.000      -1270.000
      -1264.000      -1275.000      -1281.000      -1269.000      -1250.000
      -1244.000      -1245.000      -1225.000      -1200.000      -1192.000
      -1176.000      -1140.000      -1110.000      -1098.000      -1080.000
      -1043.000      -1003.000      -976.0000      -953.0000      -916.0000
      -874.0000      -852.0000      -834.0000      -789.0000      -745.0000
      -727.0000      -704.0000      -653.0000      -595.0000      -562.0000
      -534.0000      -485.0000      -438.0000      -410.0000      -379.0000
      -331.0000      -290.0000      -264.0000      -228.0000      -176.0000
      -133.0000      -111.0000      -87.00000      -39.00000       1.000000
       17.00000       44.00000       95.00000       138.0000       153.0000
       169.0000       206.0000       237.0000       246.0000       269.0000
       305.0000       321.0000       328.0000       347.0000       378.0000
       387.0000       387.0000       405.0000       421.0000       430.0000
       430.0000       434.0000       447.0000       445.0000       433.0000
       442.0000       459.0000       450.0000       442.0000       454.0000
       452.0000       435.0000       423.0000       427.0000       426.0000
       394.0000       366.0000       363.0000       354.0000       329.0000
       308.0000       301.0000       283.0000       254.0000       236.0000
       232.0000       218.0000       190.0000       164.0000       153.0000
       135.0000       99.00000       81.00000       68.00000       34.00000
       1.000000      -24.00000      -37.00000      -60.00000      -100.0000
      -118.0000      -128.0000      -150.0000      -182.0000      -199.0000
      -198.0000      -217.0000      -241.0000      -250.0000      -258.0000
      -274.0000      -299.0000      -313.0000      -312.0000      -329.0000
      -354.0000      -358.0000      -368.0000      -394.0000      -412.0000
      -414.0000      -418.0000      -443.0000      -469.0000      -479.0000
      -495.0000      -529.0000      -556.0000      -565.0000      -590.0000
      -633.0000      -659.0000      -678.0000      -718.0000      -761.0000
      -793.0000      -812.0000      -841.0000      -888.0000      -915.0000
      -922.0000      -947.0000      -981.0000      -1002.000      -1011.000
      -1025.000      -1053.000      -1068.000      -1070.000      -1083.000
      -1096.000      -1100.000      -1091.000      -1090.000      -1095.000
      -1082.000      -1070.000      -1071.000      -1080.000      -1080.000
      -1059.000      -1052.000      -1057.000      -1050.000      -1035.000
      -1024.000      -1025.000      -1022.000      -1002.000      -988.0000
      -987.0000      -979.0000      -962.0000      -949.0000      -944.0000
      -924.0000      -898.0000      -896.0000      -892.0000      -867.0000
      -842.0000      -830.0000      -824.0000      -807.0000      -776.0000
      -761.0000      -751.0000      -726.0000      -704.0000      -691.0000
      -679.0000      -656.0000      -631.0000      -619.0000      -601.0000
      -570.0000      -546.0000      -542.0000      -534.0000      -503.0000
      -474.0000      -474.0000      -467.0000      -439.0000      -422.0000
      -415.0000      -407.0000      -386.0000      -377.0000      -387.0000
      -373.0000      -351.0000      -352.0000      -355.0000      -339.0000
