       1.000000  -4.102405e-05   2.390291e-05       0.000000      -12345.00
       0.000000       2047.000       0.000000      -12345.00      -12345.00
      -12345.00      -12345.00      -12345.00      -12345.00      -12345.00
      -12345.00      -12345.00      -12345.00      -12345.00      -12345.00
      -12345.00      -12345.00      -12345.00      -12345.00      -12345.00
      -12345.00      -12345.00      -12345.00      -12345.00      -12345.00
      -12345.00       40.61830      -120.7279       1553.000      -12345.00
      -5.451000       128.0750      -12345.00       346.2000      -12345.00
      -12345.00      -12345.00      -12345.00      -12345.00      -12345.00
      -12345.00      -12345.00      -12345.00      -12345.00      -12345.00
       12189.79       48.87694       279.8766       109.5851      -12345.00
      -12345.00  -1.346679e-07      -12345.00      -12345.00      -12345.00
      -12345.00      -12345.00      -12345.00      -12345.00      -12345.00
      -12345.00      -12345.00      -12345.00      -12345.00      -12345.00
      2006        27        16        58        49
         0         6         0         0      2048
    -12345    -12345    -12345    -12345    -12345
         1    -12345         9    -12345    -12345
    -12345    -12345    -12345    -12345    -12345
    -12345    -12345    -12345    -12345    -12345
    -12345    -12345    -12345    -12345    -12345
         1         0         1         1         0
ELFS     -12345          
-12345  -12345  -12345  
-12345  -12345  -12345  
-12345  -12345  -12345  
-12345  -12345  -12345  
-12345  -12345  -12345  
-12345  -12345       LSR
-12345  -12345   dsm_syn
[...]
  -2.722331e-07  -3.345206e-07  -4.470502e-07  -4.543896e-07  -4.043967e-07
  -4.004923e-07  -4.240588e-07  -4.028483e-07  -3.564731e-07  -3.649998e-07
  -4.382005e-07  -5.057080e-07  -5.198250e-07  -4.989159e-07  -4.751564e-07
  -4.578484e-07  -4.524896e-07  -4.683882e-07  -4.960760e-07  -5.118969e-07
  -5.144493e-07  -5.272441e-07  -5.576843e-07  -5.821715e-07  -5.823090e-07
  -5.705179e-07  -5.674554e-07  -5.747317e-07  -5.820251e-07  -5.848405e-07
  -5.849421e-07  -5.853366e-07  -5.906599e-07  -6.021380e-07  -6.113592e-07
  -6.101481e-07  -6.038949e-07  -6.032483e-07  -6.082506e-07  -6.123896e-07
  -6.131469e-07  -6.086212e-07  -6.005878e-07  -6.112143e-07  -6.680821e-07
  -7.539097e-07  -8.068852e-07  -7.997340e-07  -7.796962e-07  -7.935913e-07
  -8.176949e-07  -8.112460e-07  -7.935535e-07  -8.034293e-07  -8.213819e-07
  -8.056850e-07  -7.737802e-07  -7.696967e-07  -7.776695e-07  -7.506022e-07
  -7.024578e-07  -6.872503e-07  -7.028900e-07  -7.002856e-07  -6.737000e-07
  -6.604949e-07  -6.677160e-07  -6.772404e-07  -6.968852e-07  -7.240951e-07
  -6.992986e-07  -5.927126e-07  -4.909848e-07  -4.843287e-07  -5.189269e-07
  -4.946643e-07  -4.542826e-07  -5.101643e-07  -6.242952e-07  -6.534717e-07
  -5.998093e-07  -6.125018e-07  -7.281053e-07  -8.157700e-07  -8.140485e-07
  -8.145961e-07  -8.576484e-07  -8.515228e-07  -7.704061e-07  -7.340533e-07
  -7.998329e-07  -8.601385e-07  -8.425318e-07  -8.319989e-07  -8.892741e-07
  -9.213758e-07  -8.498176e-07  -7.517434e-07  -7.200859e-07  -7.258319e-07
  -7.173747e-07  -7.119763e-07  -7.046906e-07  -6.438693e-07  -5.686353e-07
  -5.884152e-07  -6.622655e-07  -6.250873e-07  -5.092261e-07  -5.526245e-07
  -7.519607e-07  -7.345162e-07  -3.064858e-07   1.791709e-07   3.099577e-07
   1.999636e-07   2.195679e-07   3.633735e-07   3.364223e-07   1.482008e-07
   1.327849e-07   3.632904e-07   4.918074e-07   2.833427e-07  -5.623104e-08
  -2.322698e-07  -2.357437e-07  -1.984231e-07  -1.340697e-07  -2.050835e-08
   5.289796e-08   1.202876e-08  -6.610797e-08  -1.057160e-07  -1.903539e-07
  -4.032353e-07  -6.250541e-07  -6.810186e-07  -6.185211e-07  -6.416383e-07
  -7.909974e-07  -8.818432e-07  -7.931444e-07  -6.445308e-07  -5.988700e-07
  -6.238835e-07  -5.799940e-07  -4.639114e-07  -4.109007e-07  -4.751051e-07
  -5.574032e-07  -5.753339e-07  -5.662205e-07  -5.679797e-07  -5.302333e-07
  -4.296509e-07  -3.554400e-07  -3.712558e-07  -3.940404e-07  -3.312789e-07
  -2.438140e-07  -2.364038e-07  -2.751012e-07  -2.647318e-07  -2.273757e-07
  -2.408356e-07  -2.742635e-07  -2.554798e-07  -2.235583e-07  -2.318607e-07
  -1.928668e-07  -3.888116e-08   5.612413e-08  -1.168264e-07  -4.349321e-07
  -5.758913e-07  -4.853970e-07  -4.045196e-07  -4.389759e-07  -4.371151e-07
  -3.368550e-07  -2.930739e-07  -3.668059e-07  -4.005851e-07  -3.186197e-07
  -2.646372e-07  -3.222202e-07  -3.728861e-07  -3.543622e-07  -3.887557e-07
  -5.211494e-07  -5.924781e-07  -5.142893e-07  -4.259390e-07  -4.422714e-07
  -4.802832e-07  -4.638188e-07  -4.646779e-07  -5.158824e-07  -5.171389e-07
  -4.422516e-07  -4.101169e-07  -4.505388e-07  -4.421976e-07  -3.701007e-07
  -3.800910e-07  -4.890410e-07  -5.207460e-07  -4.229715e-07  -3.612903e-07
  -4.083392e-07  -4.360610e-07  -3.954541e-07  -3.888379e-07  -3.987564e-07
  -2.922531e-07  -1.557168e-07  -2.383011e-07  -4.913891e-07  -5.841177e-07
  -4.539133e-07  -3.799149e-07  -4.209870e-07  -3.025403e-07   2.511649e-09
   1.379844e-07  -3.163849e-09  -7.689639e-08   6.482435e-08   1.129547e-07
  -6.408294e-08  -1.439301e-07  -6.767790e-09  -2.909864e-08  -3.660871e-07
  -5.831275e-07  -4.084560e-07  -2.113686e-07  -2.843114e-07  -3.009632e-07
   3.205001e-09   2.545865e-07   1.256308e-07   1.554519e-08   4.378126e-07
   1.195977e-06   1.688002e-06   1.616317e-06   1.076077e-06   4.644961e-07
   4.215916e-07   1.057777e-06   1.294012e-06   3.291344e-07  -2.158240e-07
   2.181918e-06   6.456376e-06   7.588787e-06   2.764821e-06  -4.280877e-06
  -7.822068e-06  -7.328089e-06  -6.719621e-06  -7.633312e-06  -7.690302e-06
  -5.660610e-06  -4.002633e-06  -4.594237e-06  -5.418510e-06  -3.862670e-06
  -7.812590e-07   1.193166e-06   1.446657e-06   1.028114e-06   1.039649e-07
  -1.570505e-06  -2.709062e-06  -1.742379e-06   4.297803e-07   1.341016e-06
   4.565765e-07  -4.153252e-07  -1.911007e-07   1.849650e-07  -1.787742e-07
  -7.631988e-07  -1.011152e-06  -1.330639e-06  -1.890212e-06  -1.858110e-06
  -8.158299e-07   2.048073e-07   1.027096e-07  -7.344180e-07  -1.206406e-06
  -1.136405e-06  -1.151886e-06  -1.417318e-06  -1.478322e-06  -1.187414e-06
  -9.481126e-07  -1.014042e-06  -1.154515e-06  -1.101487e-06  -8.907733e-07
  -6.637297e-07  -4.486298e-07  -2.480557e-07  -1.431608e-07  -2.080033e-07
  -3.943454e-07  -5.389044e-07  -4.835454e-07  -2.297267e-07   3.852772e-08
   1.595469e-07   1.782064e-07   2.109537e-07   2.134395e-07   9.004522e-08
  -3.035953e-08   8.200035e-08   3.477062e-07   4.104900e-07   1.742716e-07
  -4.278021e-09   1.531014e-07   3.728049e-07   1.446871e-07  -6.083123e-07
  -1.398163e-06  -1.686251e-06  -1.410778e-06  -1.012780e-06  -9.618634e-07
  -1.209643e-06  -1.191686e-06  -5.569908e-07   1.897452e-07   1.387954e-07
  -8.619994e-07  -1.909638e-06  -2.134209e-06  -1.682556e-06  -1.260687e-06
  -1.087519e-06  -8.713955e-07  -5.936183e-07  -6.058082e-07  -9.191054e-07
  -1.059331e-06  -8.194338e-07  -5.827008e-07  -6.499902e-07  -8.022342e-07
  -8.525315e-07  -1.060478e-06  -1.541438e-06  -1.806471e-06  -1.499197e-06
  -1.140122e-06  -1.406529e-06  -2.006753e-06  -2.113488e-06  -1.740426e-06
  -1.758400e-06  -2.479769e-06  -3.112867e-06  -2.904391e-06  -2.117710e-06
  -1.522928e-06  -1.435324e-06  -1.571661e-06  -1.492668e-06  -1.018359e-06
  -4.749183e-07  -4.080844e-07  -6.780833e-07  -3.194471e-07   8.679477e-07
   1.206343e-06  -8.143280e-07  -3.569050e-06  -3.448945e-06   4.364175e-07
   4.774381e-06   6.431391e-06   6.314822e-06   7.039816e-06   8.524926e-06
   8.591283e-06   7.049914e-06   6.159009e-06   6.787839e-06   6.798577e-06
   4.250419e-06   2.943167e-07  -2.291718e-06  -2.132337e-06   1.128689e-07
   2.897177e-06   4.527492e-06   3.801129e-06   1.107757e-06  -1.613023e-06
  -2.818850e-06  -2.785508e-06  -2.576784e-06  -2.437780e-06  -2.038001e-06
  -1.573121e-06  -1.536785e-06  -1.722234e-06  -1.406353e-06  -4.397961e-07
   5.603396e-07   1.056217e-06   1.075270e-06   9.188529e-07   8.531883e-07
   1.037992e-06   1.395436e-06   1.608122e-06   1.498537e-06   1.272657e-06
   1.176562e-06   1.124428e-06   8.996067e-07   5.012110e-07   5.400628e-08
  -4.119579e-07  -8.633408e-07  -1.127353e-06  -1.036523e-06  -5.721895e-07
   1.779480e-07   9.800427e-07   1.406375e-06   1.193575e-06   6.561658e-07
   3.378718e-07   2.669795e-07   5.235352e-08  -3.075049e-07  -3.642978e-07
  -5.574541e-08   1.216317e-07  -8.856858e-09   8.647024e-09   3.702025e-07
   5.525261e-07   2.161328e-07  -1.092537e-07   1.785938e-07   8.334148e-07
   1.251727e-06   1.414608e-06   1.690853e-06   2.055991e-06   2.149720e-06
   1.891625e-06   1.508934e-06   1.145904e-06   8.861287e-07   9.215315e-07
   1.253160e-06   1.453232e-06   1.157274e-06   5.826263e-07   1.689485e-07
  -4.536131e-08  -2.679767e-07  -4.187739e-07  -2.279564e-07   2.540459e-07
   6.361129e-07   6.122935e-07   1.819205e-07  -3.819155e-07  -5.995250e-07
  -1.139922e-07   8.020938e-07   1.389809e-06   1.322755e-06   1.126700e-06
   1.375041e-06   1.866589e-06   2.017485e-06   1.724529e-06   1.370239e-06
   1.221684e-06   1.261713e-06   1.407927e-06   1.502937e-06   1.285886e-06
   7.372365e-07   2.532898e-07   1.550377e-07   2.626448e-07   2.814538e-07
   3.197094e-07   6.123299e-07   9.530603e-07   8.365782e-07   8.288650e-08
  -9.556817e-07  -1.699571e-06  -1.712976e-06  -1.028030e-06  -2.522678e-07
  -2.736124e-08  -2.380119e-07  -1.692896e-07   4.305809e-07   1.033904e-06
   1.292104e-06   1.542766e-06   1.883718e-06   1.524943e-06  -1.398926e-07
  -2.336922e-06  -3.624271e-06  -3.476992e-06  -2.442954e-06  -1.105500e-06
   2.531017e-07   1.227203e-06   1.491373e-06   1.428609e-06   1.759336e-06
   2.489061e-06   2.909437e-06   2.673737e-06   2.184250e-06   1.840413e-06
   1.585426e-06   1.357447e-06   1.361271e-06   1.636982e-06   1.843874e-06
   1.721602e-06   1.409602e-06   1.156320e-06   1.053036e-06   1.156260e-06
   1.503781e-06   1.882916e-06   1.927654e-06   1.593817e-06   1.254413e-06
   1.201054e-06   1.307014e-06   1.297990e-06   1.131417e-06   9.892186e-07
   1.048079e-06   1.326434e-06   1.649562e-06   1.759964e-06   1.562171e-06
   1.226746e-06   9.815006e-07   8.966598e-07   9.410033e-07   1.080574e-06
   1.222876e-06   1.257282e-06   1.248870e-06   1.365632e-06   1.543432e-06
   1.533061e-06   1.352416e-06   1.288900e-06   1.379773e-06   1.454647e-06
   1.830860e-06   3.142129e-06   4.999157e-06   5.678636e-06   4.033315e-06
   1.159504e-06  -8.054831e-07  -1.172943e-06  -9.777042e-07  -1.053735e-06
  -1.070846e-06  -6.026563e-07   4.625866e-09   2.942455e-07   3.974469e-07
   5.656181e-07   6.364649e-07   4.673164e-07   4.065195e-07   8.262611e-07
   1.519201e-06   1.998244e-06   2.155266e-06   2.243112e-06   2.380374e-06
   2.425448e-06   2.281335e-06   2.083795e-06   2.086545e-06   2.455193e-06
   3.129495e-06   3.838471e-06   4.278516e-06   4.239566e-06   3.546651e-06
   2.119644e-06   3.236848e-07  -9.612040e-07  -1.043435e-06  -1.946112e-07
   5.970390e-07   6.599361e-07   1.533011e-07  -4.101272e-07  -7.863983e-07
  -1.048051e-06  -1.287672e-06  -1.428862e-06  -1.238443e-06  -5.296820e-07
   5.352798e-07   1.425699e-06   1.689077e-06   1.352518e-06   7.700788e-07
   2.316531e-07  -1.526767e-07  -4.510859e-07  -1.003963e-06  -2.169642e-06
  -3.625967e-06  -4.290985e-06  -3.467810e-06  -1.820610e-06  -6.307066e-07
  -2.655013e-07  -2.820275e-08   6.078057e-07   1.407922e-06   2.096202e-06
   2.855825e-06   3.763295e-06   4.351078e-06   4.210815e-06   3.643152e-06
   3.269859e-06   3.241996e-06   3.185623e-06   2.750059e-06   1.907440e-06
   8.435808e-07  -1.841402e-07  -9.546296e-07  -1.442106e-06  -1.823232e-06
  -2.217249e-06  -2.487375e-06  -2.377916e-06  -1.783426e-06  -8.537943e-07
   7.887184e-08   6.776680e-07   8.292022e-07   7.231436e-07   6.388023e-07
   6.968545e-07   8.863801e-07   1.186153e-06   1.483221e-06   1.517922e-06
   1.165692e-06   6.837621e-07   4.156881e-07   3.294262e-07   1.378125e-07
  -1.796548e-07  -3.046314e-07  -5.008476e-08   3.812124e-07   6.541738e-07
   5.928133e-07   2.091727e-07  -3.238031e-07  -7.185088e-07  -8.131036e-07
  -7.698096e-07  -8.413905e-07  -9.956481e-07  -1.010766e-06  -8.804602e-07
  -8.323969e-07  -9.591837e-07  -1.113136e-06  -1.167653e-06  -1.114383e-06
  -9.117786e-07  -5.282229e-07  -1.499695e-07  -5.752334e-08  -2.546403e-07
  -4.754883e-07  -5.771261e-07  -6.492618e-07  -7.041514e-07  -5.581927e-07
  -1.324354e-07   3.414768e-07   5.133660e-07   1.901655e-07  -5.601266e-07
  -1.407059e-06  -1.908258e-06  -1.877999e-06  -1.582406e-06  -1.388850e-06
  -1.316602e-06  -1.163981e-06  -9.419316e-07  -8.401240e-07  -8.261730e-07
  -6.414436e-07  -2.130272e-07   2.189643e-07   3.697778e-07   4.382681e-08
  -8.896354e-07  -2.276291e-06  -3.493317e-06  -3.918821e-06  -3.617538e-06
  -3.191058e-06  -2.963189e-06  -2.746757e-06  -2.423763e-06  -2.231548e-06
  -2.309816e-06  -2.396476e-06  -2.168745e-06  -1.557412e-06  -6.321044e-07
   4.337022e-07   1.211785e-06   1.308407e-06   9.035560e-07   4.324649e-07
  -4.175018e-07  -2.590960e-06  -6.002490e-06  -8.672484e-06  -8.439111e-06
  -5.358359e-06  -1.657206e-06   6.498714e-07   1.404512e-06   1.557802e-06
   1.635861e-06   1.447524e-06   8.361325e-07   6.052176e-08  -5.742389e-07
  -1.073520e-06  -1.626922e-06  -2.319752e-06  -3.048344e-06  -3.581829e-06
  -3.647541e-06  -3.130064e-06  -2.349291e-06  -2.021310e-06  -2.679202e-06
  -4.093414e-06  -5.469497e-06  -6.277300e-06  -6.665742e-06  -6.975151e-06
  -7.144125e-06  -6.853579e-06  -6.039984e-06  -4.946382e-06  -3.795972e-06
  -2.737478e-06  -2.013016e-06  -1.813274e-06  -1.975478e-06  -2.139320e-06
  -2.185402e-06  -2.206791e-06  -2.107226e-06  -1.662164e-06  -1.032464e-06
  -7.642646e-07  -1.094483e-06  -1.620574e-06  -1.861567e-06  -1.806776e-06
  -1.655749e-06  -1.303659e-06  -3.931396e-07   1.274499e-06   3.574627e-06
   6.111670e-06   8.258860e-06   9.421504e-06   9.588713e-06   9.478944e-06
   9.799692e-06   1.037435e-05   1.025113e-05   8.726867e-06   6.142261e-06
   3.655878e-06   2.288112e-06   2.119281e-06   2.323127e-06   1.978314e-06
   8.450261e-07  -6.562039e-07  -2.054228e-06  -3.178011e-06  -3.996647e-06
  -4.477393e-06  -4.695919e-06  -4.804357e-06  -4.753041e-06  -4.220662e-06
  -2.861771e-06  -4.633318e-07   2.982402e-06   6.920851e-06   1.001411e-05
   1.089336e-05   9.336472e-06   6.273523e-06   2.620254e-06  -1.209108e-06
  -4.589721e-06  -6.579667e-06  -7.064029e-06  -6.972271e-06  -6.543528e-06
  -4.467630e-06  -5.725711e-08   4.663683e-06   6.971770e-06   7.288808e-06
   8.939533e-06   1.365546e-05   1.923720e-05   2.256768e-05   2.317821e-05
   2.243497e-05   2.068746e-05   1.726580e-05   1.265991e-05   8.610516e-06
   5.869293e-06   3.450706e-06   4.738641e-07  -2.563758e-06  -4.827652e-06
  -6.298420e-06  -7.229322e-06  -7.404090e-06  -6.739107e-06  -5.958710e-06
  -5.837242e-06  -6.157505e-06  -6.139434e-06  -5.620123e-06  -5.116943e-06
  -4.874316e-06  -4.528603e-06  -3.778475e-06  -2.870802e-06  -2.254141e-06
  -2.068079e-06  -2.133473e-06  -2.263291e-06  -2.440499e-06  -2.724053e-06
  -3.033820e-06  -3.108710e-06  -2.793747e-06  -2.308630e-06  -2.015269e-06
  -1.946045e-06  -1.857125e-06  -1.751467e-06  -1.937074e-06  -2.440196e-06
  -2.815219e-06  -2.814179e-06  -2.848480e-06  -3.432637e-06  -4.507399e-06
  -5.692366e-06  -6.855072e-06  -7.933487e-06  -8.497533e-06  -8.141684e-06
  -7.231151e-06  -6.637979e-06  -6.676329e-06  -6.830030e-06  -6.629202e-06
  -6.253583e-06  -6.038042e-06  -5.845588e-06  -5.290079e-06  -4.317043e-06
  -3.248307e-06  -2.407938e-06  -1.951398e-06  -1.936778e-06  -2.315309e-06
  -2.883123e-06  -3.417558e-06  -3.879580e-06  -4.409195e-06  -5.132084e-06
  -6.006547e-06  -6.846751e-06  -7.506962e-06  -8.065850e-06  -8.760126e-06
  -9.685088e-06  -1.071005e-05  -1.182953e-05  -1.336610e-05  -1.544149e-05
  -1.733054e-05  -1.787374e-05  -1.675425e-05  -1.497052e-05  -1.371535e-05
  -1.308759e-05  -1.231748e-05  -1.101696e-05  -9.638393e-06  -8.784175e-06
  -8.797055e-06  -1.024647e-05  -1.393049e-05  -1.945788e-05  -2.412189e-05
  -2.433728e-05  -1.874193e-05  -9.430930e-06   1.687448e-07   8.127212e-06
   1.441770e-05   1.934101e-05   2.261431e-05   2.390291e-05   2.328489e-05
   2.089142e-05   1.670312e-05   1.100843e-05   4.606549e-06  -1.718439e-06
  -7.576737e-06  -1.270164e-05  -1.680716e-05  -1.999972e-05  -2.290067e-05
  -2.601707e-05  -2.927894e-05  -3.238868e-05  -3.520947e-05  -3.756857e-05
  -3.916784e-05  -4.004435e-05  -4.064617e-05  -4.102405e-05  -4.040927e-05
  -3.810561e-05  -3.437832e-05  -2.988522e-05  -2.465581e-05  -1.839016e-05
  -1.149884e-05  -4.994406e-06   6.161903e-07   5.556334e-06   9.833107e-06
   1.284297e-05   1.421833e-05   1.449411e-05   1.456307e-05   1.481219e-05
   1.504938e-05   1.495219e-05   1.430107e-05   1.300139e-05   1.118577e-05
   9.268166e-06   7.761178e-06   7.002594e-06   6.968425e-06   7.223787e-06
   7.130563e-06   6.289462e-06   4.805985e-06   3.132676e-06   1.857343e-06
   1.692739e-06   3.217119e-06   6.188023e-06   9.339688e-06   1.133326e-05
   1.184397e-05   1.138249e-05   1.026359e-05   8.304952e-06   5.521718e-06
   2.554687e-06   1.964019e-07  -1.217263e-06  -1.854195e-06  -2.103983e-06
  -2.333068e-06  -2.699185e-06  -3.130698e-06  -3.567088e-06  -4.080344e-06
  -4.574147e-06  -4.580155e-06  -3.680118e-06  -1.978340e-06   1.722458e-07
   2.715022e-06   5.727437e-06   8.866432e-06   1.149986e-05   1.338722e-05
   1.477761e-05   1.581685e-05   1.629255e-05   1.600767e-05   1.499303e-05
   1.329449e-05   1.095355e-05   8.288705e-06   5.835335e-06   3.908580e-06
   2.517678e-06   1.725453e-06   1.721544e-06   2.458305e-06   3.547998e-06
   4.632411e-06   5.607917e-06   6.452730e-06   7.112277e-06   7.612581e-06
   8.058859e-06   8.499236e-06   8.961359e-06   9.528942e-06   1.015514e-05
   1.055025e-05   1.054645e-05   1.040387e-05   1.041710e-05   1.042784e-05
   1.015185e-05   9.769966e-06   9.652902e-06   9.654997e-06   9.300439e-06
   8.606371e-06   8.067121e-06   7.797314e-06   7.362578e-06   6.589956e-06
   5.901334e-06   5.622288e-06   5.538207e-06   5.398807e-06   5.336225e-06
   5.480146e-06   5.620216e-06   5.573959e-06   5.506787e-06   5.593623e-06
   5.715442e-06   5.769035e-06   5.943301e-06   6.407079e-06   7.015271e-06
   7.573912e-06   8.109461e-06   8.643067e-06   9.000954e-06   9.107354e-06
   9.184671e-06   9.392672e-06   9.525118e-06   9.345073e-06   8.991894e-06
   8.753443e-06   8.609161e-06   8.305266e-06   7.779971e-06   7.231197e-06
   6.785554e-06   6.316006e-06   5.626373e-06   4.713669e-06   3.815445e-06
   3.205762e-06   2.929142e-06   2.774649e-06   2.553059e-06   2.295249e-06
   2.078937e-06   1.817341e-06   1.419565e-06   1.025813e-06   8.260870e-07
   7.421663e-07   5.626015e-07   3.035784e-07   1.315793e-07   3.431663e-09
  -2.749032e-07  -6.702245e-07  -9.606010e-07  -1.148189e-06  -1.469320e-06
  -1.956251e-06  -2.346050e-06  -2.502314e-06  -2.597767e-06  -2.779861e-06
  -2.957675e-06  -3.035051e-06  -3.087255e-06  -3.187172e-06  -3.285569e-06
  -3.371993e-06  -3.554796e-06  -3.876200e-06  -4.181842e-06  -4.209766e-06
  -3.697040e-06  -2.472748e-06  -6.659189e-07   1.204502e-06   2.564102e-06
   3.217184e-06   3.337484e-06   3.181930e-06   3.038077e-06   3.255986e-06
   3.928473e-06   4.563072e-06   4.410032e-06   3.142072e-06   9.839756e-07
  -1.718892e-06  -4.706527e-06  -7.634849e-06  -1.011117e-05  -1.199274e-05
  -1.339388e-05  -1.438618e-05  -1.495859e-05  -1.525890e-05  -1.556147e-05
  -1.593937e-05  -1.620309e-05  -1.618162e-05  -1.585077e-05  -1.520894e-05
  -1.426801e-05  -1.316569e-05  -1.207911e-05  -1.104049e-05  -9.996568e-06
  -8.964460e-06  -7.948914e-06  -6.828145e-06  -5.534866e-06  -4.231501e-06
  -3.103810e-06  -2.127104e-06  -1.236318e-06  -5.328387e-07  -7.878666e-08
   3.320085e-07   9.672851e-07   1.911384e-06   3.195461e-06   4.859620e-06
   6.658401e-06   8.085370e-06   8.995492e-06
